[{"OBJECT_NAME":"STARLINK-32240","OBJECT_ID":"2024-144P","EPOCH":"2026-03-09T16:58:44.041152","MEAN_MOTION":15.3018597,"ECCENTRICITY":9.07e-5,"INCLINATION":53.1587,"RA_OF_ASC_NODE":216.924,"ARG_OF_PERICENTER":72.228,"MEAN_ANOMALY":287.882,"EPHEMERIS_TYPE":0,"CLASSIFICATION_TYPE":"U","NORAD_CAT_ID":60438,"ELEMENT_SET_NO":999,"REV_AT_EPOCH":8935,"BSTAR":2.6835217e-5,"MEAN_MOTION_DOT":4.36e-6,"MEAN_MOTION_DDOT":0},{"OBJECT_NAME":"TEVEL2-6","OBJECT_ID":"2025-052F","EPOCH":"2026-03-09T15:35:24.554400","MEAN_MOTION":15.30760889,"ECCENTRICITY":0.0004769,"INCLINATION":97.4016,"RA_OF_ASC_NODE":325.0381,"ARG_OF_PERICENTER":95.6604,"MEAN_ANOMALY":264.5181,"EPHEMERIS_TYPE":0,"CLASSIFICATION_TYPE":"U","NORAD_CAT_ID":63215,"ELEMENT_SET_NO":999,"REV_AT_EPOCH":5486,"BSTAR":0.00070909,"MEAN_MOTION_DOT":0.00021046,"MEAN_MOTION_DDOT":0}]
